ATLAS CENTAUR 2         
1 00694U 63047A   25324.65982789  .00004472  00000+0  53699-3 0  9990
2 00694  30.3550  84.7657 0549552 199.7175 158.1380 14.11566887116206
THOR AGENA D R/B        
1 00733U 64002A   25324.88217459  .00000230  00000+0  99552-4 0  9993
2 00733  99.1218 327.3186 0032325 213.8926 146.0192 14.33940899222707
SL-3 R/B                
1 00877U 64053B   25324.87715980  .00000469  00000+0  11575-3 0  9991
2 00877  65.0769 290.2160 0071869 327.7035  31.9673 14.61241584250894
SL-8 R/B                
1 02802U 67045B   25324.64636286  .00000332  00000+0  99720-4 0  9999
2 02802  74.0101 191.7161 0065224 225.9837 133.5936 14.45512407 73269
SL-8 R/B                
1 03230U 68040B   25324.59976547  .00003283  00000+0  25000-3 0  9999
2 03230  74.0296 176.4382 0024021  23.8897 336.3400 15.02321141 73622
OAO 2                   
1 03597U 68110A   25324.64173939  .00000285  00000+0  81980-4 0  9992
2 03597  34.9915 154.0242 0005108  36.3339 323.7698 14.47224178  3298
ISIS 1                  
1 03669U 69009A   25324.49057824  .00000178  00000+0  12938-3 0  9994
2 03669  88.4502 167.2296 1707155 309.6667  36.5502 11.30342014336191
SERT 2                  
1 04327U 70009A   25324.85342267  .00000024  00000+0  88600-4 0  9996
2 04327  99.2613 268.9788 0005696  82.8294 291.3401 13.58713425765114
SL-3 R/B                
1 05118U 71028B   25324.84204101  .00025476  00000+0  40465-3 0  9994
2 05118  81.2386 185.5816 0020419 320.9112  39.0660 15.52945346971738
ASTEX 1                 
1 05560U 71089A   25324.42426629  .00000677  00000+0  17263-3 0  9993
2 05560  92.7127 116.4014 0017866  93.3911 266.9339 14.50603363846464
SL-8 R/B                
1 05730U 71119B   25324.59443305  .00006934  00000+0  36714-3 0  9998
2 05730  73.8894  19.2393 0560756   7.9987 352.9649 14.35145984639822
OAO 3 (COPERNICUS)      
1 06153U 72065A   25324.71879955  .00000415  00000+0  89674-4 0  9999
2 06153  35.0046 198.1091 0006825 342.5147  54.8506 14.59879185830265
