CCSDS_OMM_VERS = 2.0
CREATION_DATE  = 
ORIGINATOR     = 

OBJECT_NAME    = ATLAS CENTAUR 2
OBJECT_ID      = 1963-047A
CENTER_NAME    = EARTH
REF_FRAME      = TEME
TIME_SYSTEM    = UTC
MEAN_ELEMENT_THEORY = SGP/SGP4

EPOCH          = 2025-11-20T15:50:09.129696
MEAN_MOTION    = 14.11566887
ECCENTRICITY   = .05495526
INCLINATION    = 30.3550
RA_OF_ASC_NODE = 84.7657
ARG_OF_PERICENTER = 199.7175
MEAN_ANOMALY   = 158.1380

EPHEMERIS_TYPE = 0
CLASSIFICATION_TYPE = U
NORAD_CAT_ID   = 694
ELEMENT_SET_NO = 999
REV_AT_EPOCH   = 11620
BSTAR          = .53699253E-3
MEAN_MOTION_DOT = .4472E-4
MEAN_MOTION_DDOT = 0

CCSDS_OMM_VERS = 2.0
CREATION_DATE  = 
ORIGINATOR     = 

OBJECT_NAME    = THOR AGENA D R/B
OBJECT_ID      = 1964-002A
CENTER_NAME    = EARTH
REF_FRAME      = TEME
TIME_SYSTEM    = UTC
MEAN_ELEMENT_THEORY = SGP/SGP4

EPOCH          = 2025-11-20T21:10:19.884576
MEAN_MOTION    = 14.33940899
ECCENTRICITY   = .00323251
INCLINATION    = 99.1218
RA_OF_ASC_NODE = 327.3186
ARG_OF_PERICENTER = 213.8926
MEAN_ANOMALY   = 146.0192

EPHEMERIS_TYPE = 0
CLASSIFICATION_TYPE = U
NORAD_CAT_ID   = 733
ELEMENT_SET_NO = 999
REV_AT_EPOCH   = 22270
BSTAR          = .99551932E-4
MEAN_MOTION_DOT = .23E-5
MEAN_MOTION_DDOT = 0

CCSDS_OMM_VERS = 2.0
CREATION_DATE  = 
ORIGINATOR     = 

OBJECT_NAME    = SL-3 R/B
OBJECT_ID      = 1964-053B
CENTER_NAME    = EARTH
REF_FRAME      = TEME
TIME_SYSTEM    = UTC
MEAN_ELEMENT_THEORY = SGP/SGP4

EPOCH          = 2025-11-20T21:03:06.606720
MEAN_MOTION    = 14.61241584
ECCENTRICITY   = .00718696
INCLINATION    = 65.0769
RA_OF_ASC_NODE = 290.2160
ARG_OF_PERICENTER = 327.7035
MEAN_ANOMALY   = 31.9673

EPHEMERIS_TYPE = 0
CLASSIFICATION_TYPE = U
NORAD_CAT_ID   = 877
ELEMENT_SET_NO = 999
REV_AT_EPOCH   = 25089
BSTAR          = .11574529E-3
MEAN_MOTION_DOT = .469E-5
MEAN_MOTION_DDOT = 0

CCSDS_OMM_VERS = 2.0
CREATION_DATE  = 
ORIGINATOR     = 

OBJECT_NAME    = SL-8 R/B
OBJECT_ID      = 1967-045B
CENTER_NAME    = EARTH
REF_FRAME      = TEME
TIME_SYSTEM    = UTC
MEAN_ELEMENT_THEORY = SGP/SGP4

EPOCH          = 2025-11-20T15:30:45.751104
MEAN_MOTION    = 14.45512407
ECCENTRICITY   = .00652243
INCLINATION    = 74.0101
RA_OF_ASC_NODE = 191.7161
ARG_OF_PERICENTER = 225.9837
MEAN_ANOMALY   = 133.5936

EPHEMERIS_TYPE = 0
CLASSIFICATION_TYPE = U
NORAD_CAT_ID   = 2802
ELEMENT_SET_NO = 999
REV_AT_EPOCH   = 7326
BSTAR          = .99719578E-4
MEAN_MOTION_DOT = .332E-5
MEAN_MOTION_DDOT = 0

CCSDS_OMM_VERS = 2.0
CREATION_DATE  = 
ORIGINATOR     = 

OBJECT_NAME    = SL-8 R/B
OBJECT_ID      = 1968-040B
CENTER_NAME    = EARTH
REF_FRAME      = TEME
TIME_SYSTEM    = UTC
MEAN_ELEMENT_THEORY = SGP/SGP4

EPOCH          = 2025-11-20T14:23:39.736608
MEAN_MOTION    = 15.02321141
ECCENTRICITY   = .00240219
INCLINATION    = 74.0296
RA_OF_ASC_NODE = 176.4382
ARG_OF_PERICENTER = 23.8897
MEAN_ANOMALY   = 336.3400

EPHEMERIS_TYPE = 0
CLASSIFICATION_TYPE = U
NORAD_CAT_ID   = 3230
ELEMENT_SET_NO = 999
REV_AT_EPOCH   = 7362
BSTAR          = .25000148E-3
MEAN_MOTION_DOT = .3283E-4
MEAN_MOTION_DDOT = 0

CCSDS_OMM_VERS = 2.0
CREATION_DATE  = 
ORIGINATOR     = 

OBJECT_NAME    = OAO 2
OBJECT_ID      = 1968-110A
CENTER_NAME    = EARTH
REF_FRAME      = TEME
TIME_SYSTEM    = UTC
MEAN_ELEMENT_THEORY = SGP/SGP4

EPOCH          = 2025-11-20T15:24:06.283296
MEAN_MOTION    = 14.47224178
ECCENTRICITY   = .00051083
INCLINATION    = 34.9915
RA_OF_ASC_NODE = 154.0242
ARG_OF_PERICENTER = 36.3339
MEAN_ANOMALY   = 323.7698

EPHEMERIS_TYPE = 0
CLASSIFICATION_TYPE = U
NORAD_CAT_ID   = 3597
ELEMENT_SET_NO = 999
REV_AT_EPOCH   = 329
BSTAR          = .81979683E-4
MEAN_MOTION_DOT = .285E-5
MEAN_MOTION_DDOT = 0

CCSDS_OMM_VERS = 2.0
CREATION_DATE  = 
ORIGINATOR     = 

OBJECT_NAME    = ISIS 1
OBJECT_ID      = 1969-009A
CENTER_NAME    = EARTH
REF_FRAME      = TEME
TIME_SYSTEM    = UTC
MEAN_ELEMENT_THEORY = SGP/SGP4

EPOCH          = 2025-11-20T11:46:25.959936
MEAN_MOTION    = 11.30342014
ECCENTRICITY   = .17071555
INCLINATION    = 88.4502
RA_OF_ASC_NODE = 167.2296
ARG_OF_PERICENTER = 309.6667
MEAN_ANOMALY   = 36.5502

EPHEMERIS_TYPE = 0
CLASSIFICATION_TYPE = U
NORAD_CAT_ID   = 3669
ELEMENT_SET_NO = 999
REV_AT_EPOCH   = 33619
BSTAR          = .12937918E-3
MEAN_MOTION_DOT = .178E-5
MEAN_MOTION_DDOT = 0

CCSDS_OMM_VERS = 2.0
CREATION_DATE  = 
ORIGINATOR     = 

OBJECT_NAME    = SERT 2
OBJECT_ID      = 1970-009A
CENTER_NAME    = EARTH
REF_FRAME      = TEME
TIME_SYSTEM    = UTC
MEAN_ELEMENT_THEORY = SGP/SGP4

EPOCH          = 2025-11-20T20:28:55.718688
MEAN_MOTION    = 13.58713425
ECCENTRICITY   = .00056966
INCLINATION    = 99.2613
RA_OF_ASC_NODE = 268.9788
ARG_OF_PERICENTER = 82.8294
MEAN_ANOMALY   = 291.3401

EPHEMERIS_TYPE = 0
CLASSIFICATION_TYPE = U
NORAD_CAT_ID   = 4327
ELEMENT_SET_NO = 999
REV_AT_EPOCH   = 76511
BSTAR          = .8860011E-4
MEAN_MOTION_DOT = .24E-6
MEAN_MOTION_DDOT = 0

CCSDS_OMM_VERS = 2.0
CREATION_DATE  = 
ORIGINATOR     = 

OBJECT_NAME    = SL-3 R/B
OBJECT_ID      = 1971-028B
CENTER_NAME    = EARTH
REF_FRAME      = TEME
TIME_SYSTEM    = UTC
MEAN_ELEMENT_THEORY = SGP/SGP4

EPOCH          = 2025-11-20T20:12:32.343264
MEAN_MOTION    = 15.52945346
ECCENTRICITY   = .00204195
INCLINATION    = 81.2386
RA_OF_ASC_NODE = 185.5816
ARG_OF_PERICENTER = 320.9112
MEAN_ANOMALY   = 39.0660

EPHEMERIS_TYPE = 0
CLASSIFICATION_TYPE = U
NORAD_CAT_ID   = 5118
ELEMENT_SET_NO = 999
REV_AT_EPOCH   = 97173
BSTAR          = .40464649E-3
MEAN_MOTION_DOT = .25476E-3
MEAN_MOTION_DDOT = 0

CCSDS_OMM_VERS = 2.0
CREATION_DATE  = 
ORIGINATOR     = 

OBJECT_NAME    = ASTEX 1
OBJECT_ID      = 1971-089A
CENTER_NAME    = EARTH
REF_FRAME      = TEME
TIME_SYSTEM    = UTC
MEAN_ELEMENT_THEORY = SGP/SGP4

EPOCH          = 2025-11-20T10:10:56.607456
MEAN_MOTION    = 14.50603363
ECCENTRICITY   = .00178667
INCLINATION    = 92.7127
RA_OF_ASC_NODE = 116.4014
ARG_OF_PERICENTER = 93.3911
MEAN_ANOMALY   = 266.9339

EPHEMERIS_TYPE = 0
CLASSIFICATION_TYPE = U
NORAD_CAT_ID   = 5560
ELEMENT_SET_NO = 999
REV_AT_EPOCH   = 84646
BSTAR          = .17263349E-3
MEAN_MOTION_DOT = .677E-5
MEAN_MOTION_DDOT = 0

CCSDS_OMM_VERS = 2.0
CREATION_DATE  = 
ORIGINATOR     = 

OBJECT_NAME    = SL-8 R/B
OBJECT_ID      = 1971-119B
CENTER_NAME    = EARTH
REF_FRAME      = TEME
TIME_SYSTEM    = UTC
MEAN_ELEMENT_THEORY = SGP/SGP4

EPOCH          = 2025-11-20T14:15:59.015520
MEAN_MOTION    = 14.35145984
ECCENTRICITY   = .05607569
INCLINATION    = 73.8894
RA_OF_ASC_NODE = 19.2393
ARG_OF_PERICENTER = 7.9987
MEAN_ANOMALY   = 352.9649

EPHEMERIS_TYPE = 0
CLASSIFICATION_TYPE = U
NORAD_CAT_ID   = 5730
ELEMENT_SET_NO = 999
REV_AT_EPOCH   = 63982
BSTAR          = .3671373E-3
MEAN_MOTION_DOT = .6934E-4
MEAN_MOTION_DDOT = 0

CCSDS_OMM_VERS = 2.0
CREATION_DATE  = 
ORIGINATOR     = 

OBJECT_NAME    = OAO 3 (COPERNICUS)
OBJECT_ID      = 1972-065A
CENTER_NAME    = EARTH
REF_FRAME      = TEME
TIME_SYSTEM    = UTC
MEAN_ELEMENT_THEORY = SGP/SGP4

EPOCH          = 2025-11-20T17:15:04.281120
MEAN_MOTION    = 14.59879185
ECCENTRICITY   = .00068259
INCLINATION    = 35.0046
RA_OF_ASC_NODE = 198.1091
ARG_OF_PERICENTER = 342.5147
MEAN_ANOMALY   = 54.8506

EPHEMERIS_TYPE = 0
CLASSIFICATION_TYPE = U
NORAD_CAT_ID   = 6153
ELEMENT_SET_NO = 999
REV_AT_EPOCH   = 83026
BSTAR          = .89674023E-4
MEAN_MOTION_DOT = .415E-5
MEAN_MOTION_DDOT = 0

